[{"norad_id":"25621","company":"GLOBALSTAR","tle_line2":"2 25621  52.0110  84.7334 0009859  99.8062 340.0108 12.62507137214435","launch_date":"1999-02-09","type":"LEO","tle_line1":"1 25621U 99004A   25157.91028169 -.00000012  00000+0  50846-3 0  9993","satellite_name":"GLOBALSTAR M023"},{"norad_id":"25622","company":"GLOBALSTAR","tle_line2":"2 25622  51.9915  88.9858 0001329  22.7106  18.7648 12.62011705213957","launch_date":"1999-02-09","type":"LEO","tle_line1":"1 25622U 99004B   25157.87321470 -.00000075  00000+0  16234-3 0  9992","satellite_name":"GLOBALSTAR M040"},{"norad_id":"25623","company":"GLOBALSTAR","tle_line2":"2 25623  51.9971 267.7275 0011029  35.9804 132.2319 11.86602906177746","launch_date":"1999-02-09","type":"LEO","tle_line1":"1 25623U 99004C   25157.79014369 -.00000014  00000+0  10042-2 0  9993","satellite_name":"GLOBALSTAR M036"},{"norad_id":"25624","company":"GLOBALSTAR","tle_line2":"2 25624  51.9967 101.2600 0002306  30.9354  30.7796 12.32528048201104","launch_date":"1999-02-09","type":"LEO","tle_line1":"1 25624U 99004D   25157.87782351 -.00000087  00000+0  62953-4 0  9996","satellite_name":"GLOBALSTAR M038"},{"norad_id":"25649","company":"GLOBALSTAR","tle_line2":"2 25649  52.0058 318.9478 0003165 143.7880   4.7278 12.02500115175136","launch_date":"1999-03-15","type":"LEO","tle_line1":"1 25649U 99012A   25157.87030625 -.00000089  00000+0 -20089-4 0  9999","satellite_name":"GLOBALSTAR M022"},{"norad_id":"25650","company":"GLOBALSTAR","tle_line2":"2 25650  51.9991 198.5418 0001579 290.5699  69.4968 11.96680478177357","launch_date":"1999-03-15","type":"LEO","tle_line1":"1 25650U 99012B   25158.44557645 -.00000033  00000+0  66881-3 0  9998","satellite_name":"GLOBALSTAR M041"},{"norad_id":"25651","company":"GLOBALSTAR","tle_line2":"2 25651  52.0050 269.6797 0002119 216.3871 311.3693 12.09407791182401","launch_date":"1999-03-15","type":"LEO","tle_line1":"1 25651U 99012C   25157.78997475 -.00000106  00000+0 -19492-3 0  9992","satellite_name":"GLOBALSTAR M046"},{"norad_id":"25652","company":"GLOBALSTAR","tle_line2":"2 25652  51.9986 213.4519 0002330 167.3420 339.6511 12.62445928210101","launch_date":"1999-03-15","type":"LEO","tle_line1":"1 25652U 99012D   25158.53675797 -.00000064  00000+0  22314-3 0  9996","satellite_name":"GLOBALSTAR M037"}]